*******************************************************************************
 Revised: September 28, 2017           Jupiter                              599
 
 PHYSICAL DATA (updated 2018-Aug-15):
  Mass x10^24 (kg)      = 1898.13+-.19    Density (g/cm^3)       =   1.326
  Equat. radius (1 bar) = 71492+-4 km     Polar radius (km)      =  66854+-10
  Vol. Mean Radius (km) = 69911+-6        Flattening             =   0.06487
  Geometric Albedo      = 0.52            Rocky core mass (Mc/M) =  0.0261
  Sid. rot. period (III)= 9h 55m 29.71 s  Sid. rot. rate (rad/s) =  0.00017585 
  Mean solar day, hrs   = ~9.9259         
  GM (km^3/s^2)         = 126686534.911   GM 1-sigma (km^3/s^2)  =  +-1.5
  Equ. grav, ge (m/s^2) = 24.79           Pol. grav, gp (m/s^2)  =  28.34
  Vis. magnitude V(1,0) = -9.40
  Vis. mag. (opposition)= -2.70           Obliquity to orbit     =  3.13 deg
  Sidereal orbit period = 11.861982204 y  Sidereal orbit period  = 4332.589 d
  Mean daily motion     = 0.0831294 deg/d Mean orbit speed, km/s = 13.0697
  Atmos. temp. (1 bar)  = 165+-5 K        Escape speed, km/s    =  59.5           
  A_roche(ice)/Rp       =  2.76           Hill's sphere rad. Rp  = 740
                                 Perihelion   Aphelion     Mean
  Solar Constant (W/m^2)         56           46           51
  Maximum Planetary IR (W/m^2)   13.7         13.4         13.6
  Minimum Planetary IR (W/m^2)   13.7         13.4         13.6
*******************************************************************************
 
 
*******************************************************************************
Ephemeris / WWW_USER Tue Jan 28 15:57:43 2020 Pasadena, USA      / Horizons    
*******************************************************************************
Target body name: Jupiter (599)                   {source: jup341}
Center body name: Sun (10)                        {source: DE431mx}
Center-site name: BODY CENTER
*******************************************************************************
Start time      : A.D. 2019-Oct-15 00:00:00.0000 TDB
Stop  time      : A.D. 2022-Jul-11 00:00:00.0000 TDB
Step-size       : 1440 minutes
*******************************************************************************
Center geodetic : 0.00000000,0.00000000,0.0000000 {E-lon(deg),Lat(deg),Alt(km)}
Center cylindric: 0.00000000,0.00000000,0.0000000 {E-lon(deg),Dxy(km),Dz(km)}
Center radii    : 696000.0 x 696000.0 x 696000.0 k{Equator, meridian, pole}    
Output units    : AU-D                                                         
Output type     : GEOMETRIC cartesian states
Output format   : 2 (position and velocity)
Reference frame : ICRF/J2000.0                                                 
Coordinate systm: Ecliptic and Mean Equinox of Reference Epoch                 
*******************************************************************************
            JDTDB,            Calendar Date (TDB),                      X,                      Y,                      Z,                     VX,                     VY,                     VZ,
**************************************************************************************************************************************************************************************************
$$SOE
2459077.500000000, A.D. 2020-Aug-16 00:00:00.0000,  2.159421755043436E+00, -4.668874384785212E+00, -2.892193163488656E-02,  6.764612418583697E-03,  3.528328941442019E-03, -1.659961676066014E-04,
2459078.500000000, A.D. 2020-Aug-17 00:00:00.0000,  2.166184377965759E+00, -4.665341302191106E+00, -2.908790224222973E-02,  6.760463046183591E-03,  3.538489078143855E-03, -1.659230232445366E-04,
2459079.500000000, A.D. 2020-Aug-18 00:00:00.0000,  2.172941859310043E+00, -4.661797898871339E+00, -2.925380726627053E-02,  6.754970705447875E-03,  3.547825389548319E-03, -1.658982040318887E-04,
2459080.500000000, A.D. 2020-Aug-19 00:00:00.0000,  2.179694853175610E+00, -4.658244853881551E+00, -2.941966280221812E-02,  6.750383623298658E-03,  3.558462069806663E-03, -1.658156566733062E-04,
2459081.500000000, A.D. 2020-Aug-20 00:00:00.0000,  2.186442598547678E+00, -4.654682092580375E+00, -2.958547959442523E-02,  6.745941264756489E-03,  3.567101025070353E-03, -1.658032656345758E-04,
2459082.500000000, A.D. 2020-Aug-21 00:00:00.0000,  2.193186662367918E+00, -4.651109415343300E+00, -2.975122359547097E-02,  6.741529493086006E-03,  3.578118392710096E-03, -1.656988789010401E-04,
2459083.500000000, A.D. 2020-Aug-22 00:00:00.0000,  2.199926061735137E+00, -4.647526488826847E+00, -2.991689437124466E-02,  6.737587378155394E-03,  3.588273705762206E-03, -1.656187294877404E-04,
2459084.500000000, A.D. 2020-Aug-23 00:00:00.0000,  2.206660721791260E+00, -4.643932501459595E+00, -3.008246519933950E-02,  6.731481001930632E-03,  3.598908170408682E-03, -1.655555922876565E-04,
2459085.500000000, A.D. 2020-Aug-24 00:00:00.0000,  2.213390163233496E+00, -4.640328956445873E+00, -3.024799782095809E-02,  6.727414910268811E-03,  3.608874772682016E-03, -1.654834455747236E-04,
2459086.500000000, A.D. 2020-Aug-25 00:00:00.0000,  2.220114619241020E+00, -4.636714975507031E+00, -3.041345341024043E-02,  6.721810798761744E-03,  3.618496672703346E-03, -1.654447577009790E-04,
2459087.500000000, A.D. 2020-Aug-26 00:00:00.0000,  2.226834502702803E+00, -4.633091322252667E+00, -3.057885442592634E-02,  6.717394788433163E-03,  3.629178688304575E-03, -1.653528330758313E-04,
2459088.500000000, A.D. 2020-Aug-27 00:00:00.0000,  2.233549067505593E+00, -4.629457660424262E+00, -3.074420228905241E-02,  6.712535119786852E-03,  3.637974521290498E-03, -1.653365199733041E-04,
2459089.500000000, A.D. 2020-Aug-28 00:00:00.0000,  2.240259787461321E+00, -4.625814143634857E+00, -3.090947763853746E-02,  6.708207289732184E-03,  3.649103511712995E-03, -1.652222562296045E-04,
2459090.500000000, A.D. 2020-Aug-29 00:00:00.0000,  2.246965650361776E+00, -4.622160199821290E+00, -3.107467115596826E-02,  6.703954515870649E-03,  3.659194916072812E-03, -1.651436303258479E-04,
2459091.500000000, A.D. 2020-Aug-30 00:00:00.0000,  2.253666711619669E+00, -4.618495148267005E+00, -3.123975834446508E-02,  6.697716992539471E-03,  3.670194805150606E-03, -1.650635437153719E-04,
2459092.500000000, A.D. 2020-Aug-31 00:00:00.0000,  2.260362116323456E+00, -4.614820411879597E+00, -3.140480372184645E-02,  6.693293234643070E-03,  3.679935509429750E-03, -1.649994152969983E-04,
2459093.500000000, A.D. 2020-Sep-01 00:00:00.0000,  2.267052339628508E+00, -4.611135260203366E+00, -3.156976980813761E-02,  6.687296867047480E-03,  3.689702640187967E-03, -1.649548697744018E-04,
2459094.500000000, A.D. 2020-Sep-02 00:00:00.0000,  2.273737586530330E+00, -4.607440609169474E+00, -3.173468684574698E-02,  6.682766767307062E-03,  3.700094514749557E-03, -1.648682239384257E-04,
2459095.500000000, A.D. 2020-Sep-03 00:00:00.0000,  2.280417290904888E+00, -4.603735989089438E+00, -3.189954874169129E-02,  6.677376421224759E-03,  3.708769706578883E-03, -1.648577725061823E-04,
2459096.500000000, A.D. 2020-Sep-04 00:00:00.0000,  2.287092879590796E+00, -4.600021935125921E+00, -3.206435119135166E-02,  6.673137070016626E-03,  3.719566289364260E-03, -1.647479360880062E-04,
2459097.500000000, A.D. 2020-Sep-05 00:00:00.0000,  2.293763521357282E+00, -4.596297640038761E+00, -3.222907328460134E-02,  6.668682432421707E-03,  3.729286688256961E-03, -1.646789421255576E-04,
2459098.500000000, A.D. 2020-Sep-06 00:00:00.0000,  2.300429488130369E+00, -4.592562540990726E+00, -3.239369137118790E-02,  6.662647930427024E-03,  3.740340484874383E-03, -1.645872610188601E-04,
2459099.500000000, A.D. 2020-Sep-07 00:00:00.0000,  2.307089693076423E+00, -4.588817805590891E+00, -3.255826482025236E-02,  6.658148246449266E-03,  3.749723272866732E-03, -1.645314877499212E-04,
2459100.500000000, A.D. 2020-Sep-08 00:00:00.0000,  2.313744884147963E+00, -4.585062793456305E+00, -3.272275572317264E-02,  6.652197666591963E-03,  3.759633919932903E-03, -1.644751184096031E-04,
2459101.500000000, A.D. 2020-Sep-09 00:00:00.0000,  2.320395050799717E+00, -4.581298369846082E+00, -3.288719549164121E-02,  6.647860711916782E-03,  3.769817658982875E-03, -1.643872257891091E-04,
2459102.500000000, A.D. 2020-Sep-10 00:00:00.0000,  2.327039808467120E+00, -4.577523849433137E+00, -3.305156796541795E-02,  6.642259003676692E-03,  3.778687042004257E-03, -1.643678889917261E-04,
2459103.500000000, A.D. 2020-Sep-11 00:00:00.0000,  2.333680368069028E+00, -4.573740002732861E+00, -3.321588152324446E-02,  6.638258965791695E-03,  3.789418684341313E-03, -1.642523531492289E-04,
2459104.500000000, A.D. 2020-Sep-12 00:00:00.0000,  2.340316023062888E+00, -4.569945749174291E+00, -3.338010333792848E-02,  6.633617611956116E-03,  3.799188850776554E-03, -1.641793310825444E-04,
2459105.500000000, A.D. 2020-Sep-13 00:00:00.0000,  2.346947071928580E+00, -4.566140656069064E+00, -3.354421369879244E-02,  6.627743222236695E-03,  3.810599367451486E-03, -1.640671949337249E-04,
2459106.500000000, A.D. 2020-Sep-14 00:00:00.0000,  2.353572122973331E+00, -4.562325609443725E+00, -3.370826654025271E-02,  6.622886480794610E-03,  3.819962024302320E-03, -1.640127607556730E-04,
2459107.500000000, A.D. 2020-Sep-15 00:00:00.0000,  2.360192040696257E+00, -4.558500204224007E+00, -3.387223066217248E-02,  6.616723907291702E-03,  3.830209538575246E-03, -1.639418969335784E-04,
2459108.500000000, A.D. 2020-Sep-16 00:00:00.0000,  2.366806529967805E+00, -4.554665309805563E+00, -3.403614098285153E-02,  6.612150906015684E-03,  3.840223215542786E-03, -1.638574949296515E-04,
2459109.500000000, A.D. 2020-Sep-17 00:00:00.0000,  2.373415395099503E+00, -4.550820224336726E+00, -3.419997759722428E-02,  6.606018860961837E-03,  3.849267354448164E-03, -1.638337057979934E-04,
2459110.500000000, A.D. 2020-Sep-18 00:00:00.0000,  2.380019595441956E+00, -4.546966033454786E+00, -3.436376441020882E-02,  6.601902069461154E-03,  3.859667680621407E-03, -1.637260058744919E-04,
